{"answer":"Forecast is for KRDU airport\nIssued 12th day of the month at 11:20 Z\nForecast period from 12 Z on the 12th day of the month to 12 Z on the 13th day of the month\nWinds from 150 degrees at 3 knots\nVisibility 6 or more statute miles\nScattered clouds at 12,000 or more feet","certificate":"PRIVATE","createdDate":1586695648719,"imageFile":null,"question":"Decode this TAF: KRDU 121120Z 1212/1312 15003KT P6SM SCT120","questionId":1005,"type":"ALL"}
