{"answer":"Wind shear at 1500 feet produced by winds of 40 knots from a direction of 150 (southeast).\n\n","certificate":"PRIVATE","createdDate":1668519156997,"imageFile":null,"question":"What is the meaning of the last element (WS015/15040KT) in this TAF segment:\n\u003cp\u003e\nKRDU 110528Z 1106/1206 09007KT 3SM -RA BR OVC006 WS015/15040KT","questionId":1015,"type":"ALL"}
