{"answer":"This TAF was issued at 0528Z on the 11th of the month.  It is valid from 0600Z on the 11th until 0600Z on the 12th of the month.  (24 hours)\n\n","certificate":"PRIVATE","createdDate":1668519220769,"imageFile":null,"question":"When was the following TAF issued and for what period is it valid?\n\u003cp\u003e\nKRDU 110528Z 1106/1206 09007KT 3SM -RA BR OVC006 WS015/15040KT","questionId":1162,"type":"ALL"}
